{
  "type": "FeatureCollection",
  "features": [
    {
      "type": "Feature",
      "properties": {
        "norad_id": 38212,
        "name": "COSMOS 2251 DEB",
        "group": "cosmos-2251-debris",
        "lat": -60.53978405583195,
        "lon": -97.65302514417156,
        "alt_km": 683.9052362709954,
        "timestamp": "2025-12-25T07:41:10.121416+00:00",
        "meta_object_name": "COSMOS 2251 DEB",
        "meta_object_id": "1993-036BTC",
        "meta_epoch": "2025-12-19T04:21:29.490912",
        "meta_mean_motion": 14.77722254,
        "meta_eccentricity": 0.0092064,
        "meta_inclination": 74.0528,
        "meta_ra_of_asc_node": 63.9673,
        "meta_arg_of_pericenter": 129.0689,
        "meta_mean_anomaly": 231.8724,
        "meta_ephemeris_type": 0,
        "meta_classification_type": "U",
        "meta_norad_cat_id": 38212,
        "meta_element_set_no": 999,
        "meta_rev_at_epoch": 81405,
        "meta_bstar": 0.00027193732,
        "meta_mean_motion_dot": 2.056e-05,
        "meta_mean_motion_ddot": 0,
        "tle_line1": "1 38212U 93036BTC 25353.18159133  .00002056  00000+0  27194-3 0  9994",
        "tle_line2": "2 38212  74.0528  63.9673 0092064 129.0689 231.8724 14.77722254814050"
      },
      "geometry": {
        "type": "Point",
        "coordinates": [
          -97.65302514417156,
          -60.53978405583195
        ]
      }
    },
    {
      "type": "Feature",
      "properties": {
        "norad_id": 38220,
        "name": "COSMOS 2251 DEB",
        "group": "cosmos-2251-debris",
        "lat": 16.068945445477098,
        "lon": 47.69505645129463,
        "alt_km": 582.7963050756225,
        "timestamp": "2025-12-25T07:41:10.121426+00:00",
        "meta_object_name": "COSMOS 2251 DEB",
        "meta_object_id": "1993-036BTL",
        "meta_epoch": "2025-12-24T20:21:32.036544",
        "meta_mean_motion": 14.93598709,
        "meta_eccentricity": 0.00060446,
        "meta_inclination": 74.0139,
        "meta_ra_of_asc_node": 43.9089,
        "meta_arg_of_pericenter": 14.7851,
        "meta_mean_anomaly": 345.3507,
        "meta_ephemeris_type": 0,
        "meta_classification_type": "U",
        "meta_norad_cat_id": 38220,
        "meta_element_set_no": 999,
        "meta_rev_at_epoch": 71551,
        "meta_bstar": 0.0029609927,
        "meta_mean_motion_dot": 0.00031371,
        "meta_mean_motion_ddot": 0,
        "tle_line1": "1 38220U 93036BTL 25358.84828746  .00031371  00000+0  29610-2 0  9990",
        "tle_line2": "2 38220  74.0139  43.9089 0006044  14.7851 345.3507 14.93598709715515"
      },
      "geometry": {
        "type": "Point",
        "coordinates": [
          47.69505645129463,
          16.068945445477098
        ]
      }
    },
    {
      "type": "Feature",
      "properties": {
        "norad_id": 38479,
        "name": "COSMOS 2251 DEB",
        "group": "cosmos-2251-debris",
        "lat": -0.534705759241163,
        "lon": -18.7931536995444,
        "alt_km": 762.7681136974943,
        "timestamp": "2025-12-25T07:41:10.121436+00:00",
        "meta_object_name": "COSMOS 2251 DEB",
        "meta_object_id": "1993-036BTP",
        "meta_epoch": "2025-12-23T05:36:33.154848",
        "meta_mean_motion": 14.38410381,
        "meta_eccentricity": 0.00839559,
        "meta_inclination": 74.0057,
        "meta_ra_of_asc_node": 164.9051,
        "meta_arg_of_pericenter": 271.8436,
        "meta_mean_anomaly": 269.121,
        "meta_ephemeris_type": 0,
        "meta_classification_type": "U",
        "meta_norad_cat_id": 38479,
        "meta_element_set_no": 999,
        "meta_rev_at_epoch": 64838,
        "meta_bstar": 0.0020977765,
        "meta_mean_motion_dot": 6.644e-05,
        "meta_mean_motion_ddot": 0,
        "tle_line1": "1 38479U 93036BTP 25357.23371707  .00006644  00000+0  20978-2 0  9991",
        "tle_line2": "2 38479  74.0057 164.9051 0083955 271.8436 269.1210 14.38410381648386"
      },
      "geometry": {
        "type": "Point",
        "coordinates": [
          -18.7931536995444,
          -0.534705759241163
        ]
      }
    },
    {
      "type": "Feature",
      "properties": {
        "norad_id": 38481,
        "name": "COSMOS 2251 DEB",
        "group": "cosmos-2251-debris",
        "lat": -72.66216835536166,
        "lon": -81.57776090743278,
        "alt_km": 748.5236617658793,
        "timestamp": "2025-12-25T07:41:10.121446+00:00",
        "meta_object_name": "COSMOS 2251 DEB",
        "meta_object_id": "1993-036BTR",
        "meta_epoch": "2025-12-24T16:34:49.611936",
        "meta_mean_motion": 13.9488699,
        "meta_eccentricity": 0.02349003,
        "meta_inclination": 73.9328,
        "meta_ra_of_asc_node": 346.8989,
        "meta_arg_of_pericenter": 284.9937,
        "meta_mean_anomaly": 72.5302,
        "meta_ephemeris_type": 0,
        "meta_classification_type": "U",
        "meta_norad_cat_id": 38481,
        "meta_element_set_no": 999,
        "meta_rev_at_epoch": 59227,
        "meta_bstar": 0.0016488432,
        "meta_mean_motion_dot": 2.762e-05,
        "meta_mean_motion_ddot": 0,
        "tle_line1": "1 38481U 93036BTR 25358.69085199  .00002762  00000+0  16488-2 0  9990",
        "tle_line2": "2 38481  73.9328 346.8989 0234900 284.9937  72.5302 13.94886990592276"
      },
      "geometry": {
        "type": "Point",
        "coordinates": [
          -81.57776090743278,
          -72.66216835536166
        ]
      }
    },
    {
      "type": "Feature",
      "properties": {
        "norad_id": 38483,
        "name": "COSMOS 2251 DEB",
        "group": "cosmos-2251-debris",
        "lat": 59.210247000118514,
        "lon": 140.993525198185,
        "alt_km": 717.7483736322756,
        "timestamp": "2025-12-25T07:41:10.121456+00:00",
        "meta_object_name": "COSMOS 2251 DEB",
        "meta_object_id": "1993-036BTT",
        "meta_epoch": "2025-12-12T08:16:48.530496",
        "meta_mean_motion": 14.28787654,
        "meta_eccentricity": 0.01107994,
        "meta_inclination": 74.262,
        "meta_ra_of_asc_node": 12.4521,
        "meta_arg_of_pericenter": 118.0167,
        "meta_mean_anomaly": 243.2246,
        "meta_ephemeris_type": 0,
        "meta_classification_type": "U",
        "meta_norad_cat_id": 38483,
        "meta_element_set_no": 999,
        "meta_rev_at_epoch": 63472,
        "meta_bstar": 0.0012977102,
        "meta_mean_motion_dot": 3.471e-05,
        "meta_mean_motion_ddot": 0,
        "tle_line1": "1 38483U 93036BTT 25346.34500614  .00003471  00000+0  12977-2 0  9992",
        "tle_line2": "2 38483  74.2620  12.4521 0110799 118.0167 243.2246 14.28787654634722"
      },
      "geometry": {
        "type": "Point",
        "coordinates": [
          140.993525198185,
          59.210247000118514
        ]
      }
    },
    {
      "type": "Feature",
      "properties": {
        "norad_id": 38486,
        "name": "COSMOS 2251 DEB",
        "group": "cosmos-2251-debris",
        "lat": -43.451542175131536,
        "lon": 164.35971431812982,
        "alt_km": 634.9291122361119,
        "timestamp": "2025-12-25T07:41:10.121466+00:00",
        "meta_object_name": "COSMOS 2251 DEB",
        "meta_object_id": "1993-036BTW",
        "meta_epoch": "2025-12-19T21:49:44.280192",
        "meta_mean_motion": 14.73429029,
        "meta_eccentricity": 0.0030516,
        "meta_inclination": 73.9403,
        "meta_ra_of_asc_node": 190.8021,
        "meta_arg_of_pericenter": 334.2314,
        "meta_mean_anomaly": 90.8371,
        "meta_ephemeris_type": 0,
        "meta_classification_type": "U",
        "meta_norad_cat_id": 38486,
        "meta_element_set_no": 999,
        "meta_rev_at_epoch": 75540,
        "meta_bstar": 0.0013432,
        "meta_mean_motion_dot": 8.756e-05,
        "meta_mean_motion_ddot": 0,
        "tle_line1": "1 38486U 93036BTW 25353.90954028  .00008756  00000+0  13432-2 0  9995",
        "tle_line2": "2 38486  73.9403 190.8021 0030516 334.2314  90.8371 14.73429029755403"
      },
      "geometry": {
        "type": "Point",
        "coordinates": [
          164.35971431812982,
          -43.451542175131536
        ]
      }
    },
    {
      "type": "Feature",
      "properties": {
        "norad_id": 38487,
        "name": "COSMOS 2251 DEB",
        "group": "cosmos-2251-debris",
        "lat": -56.959219371271224,
        "lon": -18.784651159605726,
        "alt_km": 525.5338431032205,
        "timestamp": "2025-12-25T07:41:10.121476+00:00",
        "meta_object_name": "COSMOS 2251 DEB",
        "meta_object_id": "1993-036BTX",
        "meta_epoch": "2025-12-21T18:32:44.643552",
        "meta_mean_motion": 15.1793295,
        "meta_eccentricity": 0.00206459,
        "meta_inclination": 73.9735,
        "meta_ra_of_asc_node": 14.8819,
        "meta_arg_of_pericenter": 185.3276,
        "meta_mean_anomaly": 174.7704,
        "meta_ephemeris_type": 0,
        "meta_classification_type": "U",
        "meta_norad_cat_id": 38487,
        "meta_element_set_no": 999,
        "meta_rev_at_epoch": 66937,
        "meta_bstar": 0.0019265154,
        "meta_mean_motion_dot": 0.00039496,
        "meta_mean_motion_ddot": 0,
        "tle_line1": "1 38487U 93036BTX 25355.77273893  .00039496  00000+0  19265-2 0  9992",
        "tle_line2": "2 38487  73.9735  14.8819 0020645 185.3276 174.7704 15.17932950669379"
      },
      "geometry": {
        "type": "Point",
        "coordinates": [
          -18.784651159605726,
          -56.959219371271224
        ]
      }
    }
  ]
}